{
  "type": "FeatureCollection",
  "features": [
    {
      "type": "Feature",
      "properties": {
        "norad_id": 66315,
        "name": "SENTINEL-1D",
        "group": "last-30-days",
        "lat": 45.412228764471195,
        "lon": 172.20126525190167,
        "alt_km": 687.7377161752402,
        "timestamp": "2025-12-04T15:47:52.867103+00:00",
        "meta_object_name": "SENTINEL-1D",
        "meta_object_id": "2025-251A",
        "meta_epoch": "2025-12-03T14:30:47.068416",
        "meta_mean_motion": 14.5991103,
        "meta_eccentricity": 0.00026458,
        "meta_inclination": 98.1924,
        "meta_ra_of_asc_node": 342.7567,
        "meta_arg_of_pericenter": 152.8376,
        "meta_mean_anomaly": 207.2963,
        "meta_ephemeris_type": 0,
        "meta_classification_type": "U",
        "meta_norad_cat_id": 66315,
        "meta_element_set_no": 999,
        "meta_rev_at_epoch": 420,
        "meta_bstar": 8.0054337e-05,
        "meta_mean_motion_dot": 3.37e-06,
        "meta_mean_motion_ddot": 0,
        "tle_line1": "1 66315U 25251A   25337.60471144  .00000337  00000+0  80054-4 0  9996",
        "tle_line2": "2 66315  98.1924 342.7567 0002645 152.8376 207.2963 14.59911030  4207"
      },
      "geometry": {
        "type": "Point",
        "coordinates": [
          172.20126525190167,
          45.412228764471195
        ]
      }
    },
    {
      "type": "Feature",
      "properties": {
        "norad_id": 66316,
        "name": "QPS-SAR-14 (YACHIHOKO-I)",
        "group": "last-30-days",
        "lat": -28.1616056051774,
        "lon": 83.19081222599495,
        "alt_km": 580.5299332189443,
        "timestamp": "2025-12-04T15:47:52.867161+00:00",
        "meta_object_name": "QPS-SAR-14 (YACHIHOKO-I)",
        "meta_object_id": "2025-252A",
        "meta_epoch": "2025-12-04T03:11:32.570304",
        "meta_mean_motion": 14.97560514,
        "meta_eccentricity": 0.00068288,
        "meta_inclination": 42.0034,
        "meta_ra_of_asc_node": 122.5741,
        "meta_arg_of_pericenter": 91.9223,
        "meta_mean_anomaly": 268.2384,
        "meta_ephemeris_type": 0,
        "meta_classification_type": "U",
        "meta_norad_cat_id": 66316,
        "meta_element_set_no": 999,
        "meta_rev_at_epoch": 424,
        "meta_bstar": 0.0010610944,
        "meta_mean_motion_dot": 0.00012436,
        "meta_mean_motion_ddot": 0,
        "tle_line1": "1 66316U 25252A   25338.13301586  .00012436  00000+0  10611-2 0  9992",
        "tle_line2": "2 66316  42.0034 122.5741 0006828  91.9223 268.2384 14.97560514  4244"
      },
      "geometry": {
        "type": "Point",
        "coordinates": [
          83.19081222599495,
          -28.1616056051774
        ]
      }
    },
    {
      "type": "Feature",
      "properties": {
        "norad_id": 66317,
        "name": "ELECTRON R/B",
        "group": "last-30-days",
        "lat": -41.96390345973613,
        "lon": 9.018814241135702,
        "alt_km": 272.1131238411908,
        "timestamp": "2025-12-04T15:47:52.867179+00:00",
        "meta_object_name": "ELECTRON R/B",
        "meta_object_id": "2025-252B",
        "meta_epoch": "2025-12-03T17:54:17.702208",
        "meta_mean_motion": 16.11372677,
        "meta_eccentricity": 0.00810811,
        "meta_inclination": 41.986,
        "meta_ra_of_asc_node": 105.3311,
        "meta_arg_of_pericenter": 73.5218,
        "meta_mean_anomaly": 287.4538,
        "meta_ephemeris_type": 0,
        "meta_classification_type": "U",
        "meta_norad_cat_id": 66317,
        "meta_element_set_no": 999,
        "meta_rev_at_epoch": 440,
        "meta_bstar": 0.0017947301,
        "meta_mean_motion_dot": 0.03381088,
        "meta_mean_motion_ddot": 8.186283e-06,
        "tle_line1": "1 66317U 25252B   25337.74603822  .03381088  81863-5  17947-2 0  9993",
        "tle_line2": "2 66317  41.9860 105.3311 0081081  73.5218 287.4538 16.11372677  4407"
      },
      "geometry": {
        "type": "Point",
        "coordinates": [
          9.018814241135702,
          -41.96390345973613
        ]
      }
    },
    {
      "type": "Feature",
      "properties": {
        "norad_id": 66319,
        "name": "STARLINK-35442",
        "group": "last-30-days",
        "lat": -11.471312944156107,
        "lon": 19.868920911004363,
        "alt_km": 445.2362505552055,
        "timestamp": "2025-12-04T15:47:52.867193+00:00",
        "meta_object_name": "STARLINK-35442",
        "meta_object_id": "2025-253A",
        "meta_epoch": "2025-12-04T00:00:02.000160",
        "meta_mean_motion": 15.40760986,
        "meta_eccentricity": 0.00016164,
        "meta_inclination": 43.0012,
        "meta_ra_of_asc_node": 36.2403,
        "meta_arg_of_pericenter": 263.9906,
        "meta_mean_anomaly": 23.9749,
        "meta_ephemeris_type": 0,
        "meta_classification_type": "U",
        "meta_norad_cat_id": 66319,
        "meta_element_set_no": 999,
        "meta_rev_at_epoch": 562,
        "meta_bstar": -0.0033150496,
        "meta_mean_motion_dot": -0.0013661,
        "meta_mean_motion_ddot": 0,
        "tle_line1": "1 66319U 25253A   25338.00002315 -.00136610  00000+0 -33150-2 0  9996",
        "tle_line2": "2 66319  43.0012  36.2403 0001616 263.9906  23.9749 15.40760986  5627"
      },
      "geometry": {
        "type": "Point",
        "coordinates": [
          19.868920911004363,
          -11.471312944156107
        ]
      }
    },
    {
      "type": "Feature",
      "properties": {
        "norad_id": 66320,
        "name": "STARLINK-34616",
        "group": "last-30-days",
        "lat": 14.439354049347402,
        "lon": -164.0196690223657,
        "alt_km": 420.5284001148184,
        "timestamp": "2025-12-04T15:47:52.867240+00:00",
        "meta_object_name": "STARLINK-34616",
        "meta_object_id": "2025-253B",
        "meta_epoch": "2025-12-03T20:32:36.860352",
        "meta_mean_motion": 15.4882756,
        "meta_eccentricity": 0.000321,
        "meta_inclination": 43.0001,
        "meta_ra_of_asc_node": 36.7018,
        "meta_arg_of_pericenter": 337.973,
        "meta_mean_anomaly": 22.0991,
        "meta_ephemeris_type": 0,
        "meta_classification_type": "U",
        "meta_norad_cat_id": 66320,
        "meta_element_set_no": 999,
        "meta_rev_at_epoch": 563,
        "meta_bstar": -0.0018285587,
        "meta_mean_motion_dot": -0.00099902,
        "meta_mean_motion_ddot": 0,
        "tle_line1": "1 66320U 25253B   25337.85598218 -.00099902  00000+0 -18286-2 0  9997",
        "tle_line2": "2 66320  43.0001  36.7018 0003210 337.9730  22.0991 15.48827560  5633"
      },
      "geometry": {
        "type": "Point",
        "coordinates": [
          -164.0196690223657,
          14.439354049347402
        ]
      }
    },
    {
      "type": "Feature",
      "properties": {
        "norad_id": 66321,
        "name": "STARLINK-34615",
        "group": "last-30-days",
        "lat": 28.975281377131438,
        "lon": 174.7411840436378,
        "alt_km": 411.26330790520205,
        "timestamp": "2025-12-04T15:47:52.867255+00:00",
        "meta_object_name": "STARLINK-34615",
        "meta_object_id": "2025-253C",
        "meta_epoch": "2025-12-04T08:00:01.999872",
        "meta_mean_motion": 15.5169483,
        "meta_eccentricity": 0.0001517,
        "meta_inclination": 43,
        "meta_ra_of_asc_node": 33.1024,
        "meta_arg_of_pericenter": 277.9146,
        "meta_mean_anomaly": 200.3228,
        "meta_ephemeris_type": 0,
        "meta_classification_type": "U",
        "meta_norad_cat_id": 66321,
        "meta_element_set_no": 999,
        "meta_rev_at_epoch": 562,
        "meta_bstar": -0.0277086,
        "meta_mean_motion_dot": -0.01529676,
        "meta_mean_motion_ddot": 0,
        "tle_line1": "1 66321U 25253C   25338.33335648 -.01529676  00000+0 -27709-1 0  9994",
        "tle_line2": "2 66321  43.0000  33.1024 0001517 277.9146 200.3228 15.51694830  5622"
      },
      "geometry": {
        "type": "Point",
        "coordinates": [
          174.7411840436378,
          28.975281377131438
        ]
      }
    },
    {
      "type": "Feature",
      "properties": {
        "norad_id": 66322,
        "name": "STARLINK-35292",
        "group": "last-30-days",
        "lat": 13.785025950033898,
        "lon": 47.622738618467984,
        "alt_km": 442.31624660237594,
        "timestamp": "2025-12-04T15:47:52.867267+00:00",
        "meta_object_name": "STARLINK-35292",
        "meta_object_id": "2025-253D",
        "meta_epoch": "2025-12-04T08:00:01.999872",
        "meta_mean_motion": 15.40868781,
        "meta_eccentricity": 0.00010704,
        "meta_inclination": 43.0005,
        "meta_ra_of_asc_node": 34.2306,
        "meta_arg_of_pericenter": 255.9816,
        "meta_mean_anomaly": 120.2822,
        "meta_ephemeris_type": 0,
        "meta_classification_type": "U",
        "meta_norad_cat_id": 66322,
        "meta_element_set_no": 999,
        "meta_rev_at_epoch": 557,
        "meta_bstar": -0.0069342139,
        "meta_mean_motion_dot": -0.00281116,
        "meta_mean_motion_ddot": 0,
        "tle_line1": "1 66322U 25253D   25338.33335648 -.00281116  00000+0 -69342-2 0  9998",
        "tle_line2": "2 66322  43.0005  34.2306 0001070 255.9816 120.2822 15.40868781  5577"
      },
      "geometry": {
        "type": "Point",
        "coordinates": [
          47.622738618467984,
          13.785025950033898
        ]
      }
    }
  ]
}